     2.100          NAVIGATION                              RINEX VERSION / TYPE
fic2rin                                 08/01/2012 00:13:32 PGM / RUN BY / DATE
                                                            END OF HEADER
 4 12  8  1  0  0  0.0  .260694883764D-03  .113686837722D-10  .000000000000D+00
     .390000000000D+02  .334687500000D+02  .546558480640D-08  .348916832849D+00
     .201724469662D-05  .100800199434D-01  .770948827267D-05  .515362719345D+04
     .259200000000D+06 -.186264514923D-07 -.235993541603D+01  .614672899246D-07
     .937676537854D+00  .217718750000D+03  .876416103049D+00 -.856357099282D-08
     .502520932014D-09  .100000000000D+01  .169900000000D+04  .000000000000D+00
     .240000000000D+01  .000000000000D+00 -.651925802231D-08  .390000000000D+02
     .252006000000D+06  .400000000000D+01
 5 12  8  1  0  0  0.0 -.339642167091D-03 -.329691829393D-11  .000000000000D+00
     .440000000000D+02 -.311250000000D+02  .520021660989D-08 -.739269465632D+00
    -.166893005371D-05  .275395473000D-02  .562332570553D-05  .515370218849D+04
     .259200000000D+06  .800937414169D-07 -.131268507933D+01 -.260770320892D-07
     .950074129281D+00  .267375000000D+03  .197061701074D+00 -.835213361418D-08
    -.544308386915D-09  .100000000000D+01  .169900000000D+04  .000000000000D+00
     .240000000000D+01  .000000000000D+00 -.102445483208D-07  .440000000000D+02
     .252006000000D+06  .400000000000D+01
 7 12  8  1  0  0  0.0  .106167979538D-03  .386535248253D-11  .000000000000D+00
     .270000000000D+02  .138781250000D+03  .422874757288D-08  .205918800778D+01
     .717863440514D-05  .575842708349D-02  .423192977905D-05  .515373061180D+04
     .259200000000D+06 -.558793544769D-07  .798942868389D+00  .335276126862D-07
     .975908792964D+00  .305343750000D+03 -.302062394152D+01 -.819034116058D-08
     .369658254893D-09  .100000000000D+01  .169900000000D+04  .000000000000D+00
     .240000000000D+01  .000000000000D+00 -.107102096081D-07  .270000000000D+02
     .252006000000D+06  .400000000000D+01
 8 12  8  1  0  0  0.0  .185426324606D-05  .000000000000D+00  .000000000000D+00
     .210000000000D+02  .123812500000D+03  .372586948313D-08  .135549109076D+01
     .653974711895D-05  .125180081232D-01  .403821468353D-05  .515366602898D+04
     .259200000000D+06 -.894069671631D-07  .883679658085D+00  .134110450745D-06
     .998124229503D+00  .319937500000D+03 -.295565457490D+01 -.801319092442D-08
     .266082511976D-09  .100000000000D+01  .169900000000D+04  .000000000000D+00
     .240000000000D+01  .000000000000D+00 -.419095158577D-08  .210000000000D+02
     .252006000000D+06  .400000000000D+01
 9 12  8  1  0  0  0.0  .175553373992D-03  .261479726760D-11  .000000000000D+00
     .128000000000D+03  .122343750000D+03  .402873924173D-08  .135872829587D+01
     .606104731560D-05  .174746410921D-01  .526756048203D-05  .515361196518D+04
     .259200000000D+06 -.912696123123D-07  .773672876455D+00 -.404193997383D-06
     .984641302080D+00  .287875000000D+03  .163917526977D+01 -.811355224773D-08
     .417160233541D-09  .100000000000D+01  .169900000000D+04  .000000000000D+00
     .240000000000D+01  .000000000000D+00 -.558793544769D-08  .128000000000D+03
     .252006000000D+06  .400000000000D+01
10 12  8  1  0  0  0.0 -.466993078589D-04 -.125055521494D-11  .000000000000D+00
     .520000000000D+02 -.305000000000D+02  .543665502993D-08 -.506280491952D+00
    -.159256160259D-05  .114287921460D-01  .558793544769D-05  .515370113373D+04
     .259200000000D+06  .409781932831D-07 -.129148558235D+01  .182539224625D-06
     .944954926880D+00  .261000000000D+03  .753074333049D+00 -.861607317975D-08
    -.602525097589D-09  .100000000000D+01  .169900000000D+04  .000000000000D+00
     .240000000000D+01  .000000000000D+00 -.232830643654D-08  .520000000000D+02
     .252006000000D+06  .400000000000D+01
11 12  8  1  0  0  0.0 -.287510920316D-03 -.386535248253D-11  .000000000000D+00
     .540000000000D+02  .261250000000D+02  .627883296717D-08  .215062552404D+01
     .120513141155D-05  .131909552729D-01  .101272016764D-04  .515367781258D+04
     .259200000000D+06 -.372529029846D-07 -.263636205113D+01 -.270083546638D-06
     .888450823497D+00  .143718750000D+03  .106891000627D+01 -.861464454881D-08
     .716101257063D-09  .100000000000D+01  .169900000000D+04  .000000000000D+00
     .240000000000D+01  .000000000000D+00 -.121071934700D-07  .540000000000D+02
     .252006000000D+06  .400000000000D+01
12 12  8  1  0  0  0.0  .829789787531D-04  .204636307899D-11  .000000000000D+00
     .600000000000D+02 -.835625000000D+02  .432125142604D-08  .167095144065D+01
    -.458396971226D-05  .402725196909D-02  .182725489140D-05  .515374831772D+04
     .259200000000D+06  .279396772385D-07  .185615835727D+01  .391155481339D-07
     .980368062779D+00  .353625000000D+03  .126949715119D+00 -.825498671047D-08
    -.204294223960D-09  .100000000000D+01  .169900000000D+04  .000000000000D+00
     .240000000000D+01  .000000000000D+00 -.121071934700D-07  .600000000000D+02
     .252006000000D+06  .400000000000D+01
13 12  8  1  0  0  0.0  .190962105989D-03 -.250111042988D-11  .000000000000D+00
     .810000000000D+02  .841562500000D+02  .354479051190D-08 -.201363394423D+01
     .428408384323D-05  .489714834839D-02  .132825225592D-04  .515364514542D+04
     .259200000000D+06 -.279396772385D-07 -.170336316311D+00  .102445483208D-06
     .985356910402D+00  .135937500000D+03  .205803402581D+01 -.745745349001D-08
    -.351800368183D-09  .100000000000D+01  .169900000000D+04  .000000000000D+00
     .240000000000D+01  .000000000000D+00 -.111758708954D-07  .810000000000D+02
     .252006000000D+06  .400000000000D+01
14 12  8  1  0  0  0.0  .208668410778D-03  .113686837722D-11  .000000000000D+00
     .400000000000D+02  .654687500000D+02  .370729728096D-08 -.176006890488D+01
     .334344804287D-05  .663440150674D-02  .121369957924D-04  .515362363815D+04
     .259200000000D+06  .219792127609D-06 -.197467312666D+00 -.521540641785D-07
     .978150369672D+00  .158156250000D+03 -.206582082422D+01 -.744816738893D-08
    -.349300264044D-09  .100000000000D+01  .169900000000D+04  .000000000000D+00
     .240000000000D+01  .000000000000D+00 -.931322574615D-08  .400000000000D+02
     .252006000000D+06  .400000000000D+01
15 12  8  1  0  0  0.0 -.931438989937D-04 -.454747350886D-12  .000000000000D+00
     .320000000000D+02  .386875000000D+02  .450411618595D-08 -.221034358822D+01
     .205263495445D-05  .448609504383D-02  .123828649521D-04  .515360399628D+04
     .259200000000D+06 -.372529029846D-07 -.287360581379D+00  .372529029846D-07
     .944874049454D+00  .133750000000D+03  .389345026012D-01 -.787818530090D-08
    -.348943106310D-09  .100000000000D+01  .169900000000D+04  .000000000000D+00
     .240000000000D+01  .000000000000D+00 -.102445483208D-07  .320000000000D+02
     .252006000000D+06  .400000000000D+01
16 12  8  1  0  0  0.0 -.242574606091D-03 -.102318153949D-11  .000000000000D+00
     .200000000000D+02 -.930312500000D+02  .430232206613D-08 -.564300750466D+00
    -.479631125927D-05  .655193056446D-02  .228546559811D-05  .515371671295D+04
     .259200000000D+06  .428408384323D-07  .187436108413D+01 -.465661287308D-07
     .981183259250D+00  .339781250000D+03  .247278125498D-01 -.832998983466D-08
    -.171792870148D-09  .100000000000D+01  .169900000000D+04  .000000000000D+00
     .240000000000D+01  .000000000000D+00 -.977888703346D-08  .200000000000D+02
     .252006000000D+06  .400000000000D+01
17 12  8  1  0  0  0.0  .108792912215D-03 -.318323145621D-11  .000000000000D+00
     .410000000000D+02 -.106343750000D+03  .418553148704D-08 -.148511319149D+01
    -.540912151337D-05  .745134032331D-02  .122319906950D-04  .515372922707D+04
     .259200000000D+06  .152736902237D-06  .291423534544D+01  .223517417908D-07
     .963818873690D+00  .142906250000D+03 -.229621533024D+01 -.771067832356D-08
     .229295265354D-09  .100000000000D+01  .169900000000D+04  .000000000000D+00
     .240000000000D+01  .000000000000D+00 -.107102096081D-07  .410000000000D+02
     .252006000000D+06  .400000000000D+01
19 12  8  1  0  0  0.0 -.290031079203D-03 -.363797880709D-11  .000000000000D+00
     .103000000000D+03 -.830937500000D+02  .420160358508D-08 -.231311288694D+01
    -.454485416412D-05  .852380343713D-02  .134091824293D-04  .515361790276D+04
     .259200000000D+06 -.707805156708D-07  .296705162984D+01 -.162050127983D-06
     .961179118477D+00  .122218750000D+03  .213989780093D+00 -.773782231136D-08
     .322870591713D-09  .100000000000D+01  .169900000000D+04  .000000000000D+00
     .240000000000D+01  .000000000000D+00 -.149011611938D-07  .103000000000D+03
     .252006000000D+06  .400000000000D+01
20 12  8  1  0  0  0.0  .655101612210D-04  .568434188608D-12  .000000000000D+00
     .140000000000D+02 -.256875000000D+02  .578059792796D-08  .382687244871D+00
    -.131502747536D-05  .492733856663D-02  .537373125553D-05  .515365024376D+04
     .259200000000D+06 -.223517417908D-07 -.135740730864D+01  .484287738800D-07
     .929259287585D+00  .258125000000D+03  .128179114023D+01 -.873322091656D-08
    -.507163982558D-09  .100000000000D+01  .169900000000D+04  .000000000000D+00
     .240000000000D+01  .000000000000D+00 -.791624188423D-08  .140000000000D+02
     .252006000000D+06  .400000000000D+01
21 12  8  1  0  0  0.0 -.240236986428D-03 -.250111042988D-11  .000000000000D+00
     .103000000000D+03  .372187500000D+02  .567023618810D-08  .110597364584D+01
     .214204192162D-05  .192997417180D-01  .816397368908D-05  .515358300209D+04
     .259200000000D+06 -.270083546638D-06 -.235438491758D+01  .225380063057D-06
     .931382305023D+00  .213250000000D+03 -.223051797608D+01 -.882429613878D-08
     .406445501515D-09  .100000000000D+01  .169900000000D+04  .000000000000D+00
     .240000000000D+01  .000000000000D+00 -.111758708954D-07  .103000000000D+03
     .252006000000D+06  .400000000000D+01
